ONEWEB-0336             
1 49202U 21083S   26183.11329837 -.00000044  00000+0 -15635-3 0  9997
2 49202  87.8966 317.2561 0001978  90.1451 269.9905 13.13470440232872
ONEWEB-0337             
1 49203U 21083T   26183.27566948  .00000181  00000+0  46042-3 0  9997
2 49203  87.8965 317.2291 0002057  97.7734 262.3629 13.13469747232898
ONEWEB-0338             
1 49204U 21083U   26183.26820424 -.00000011  00000+0 -59807-4 0  9997
2 49204  87.9191 271.4431 0001896 108.0821 252.0519 13.20770580238800
ONEWEB-0339             
1 49205U 21083V   26183.28426733  .00002444  00000+0  66571-2 0  9999
2 49205  87.8967 317.2204 0002029 108.8606 251.2743 13.13458949232871
ONEWEB-0340             
1 49206U 21083W   26183.15707476  .00000001  00000+0 -29746-4 0  9995
2 49206  87.9186 332.4776 0001919  92.9197 267.2155 13.18685658231949
ONEWEB-0341             
1 49207U 21083X   26183.16381702 -.00000016  00000+0 -72398-4 0  9995
2 49207  87.9180 332.4787 0002357  95.8749 264.2652 13.18686355231964
ONEWEB-0342             
1 49208U 21083Y   26183.27496343  .00000103  00000+0  22183-3 0  9997
2 49208  87.9195 271.4305 0002069 103.1196 257.0168 13.20771767238771
ONEWEB-0343             
1 49209U 21083Z   26183.17225087  .00000002  00000+0 -26970-4 0  9990
2 49209  87.9180 332.4760 0001950 108.4444 251.6900 13.18686282232010
ONEWEB-0344             
1 49210U 21083AA  26183.27918656  .00000386  00000+0  10228-2 0  9995
2 49210  87.8961 317.2346 0002233  98.1010 262.0372 13.13468712232872
ONEWEB-0345             
1 49211U 21083AB  26183.11836942  .00000165  00000+0  41684-3 0  9992
2 49211  87.8977 317.2503 0002222  98.7289 261.4092 13.13469131232864
ONEWEB-0346             
1 49212U 21083AC  26183.16887686  .00000037  00000+0  62013-4 0  9997
2 49212  87.9175 332.4762 0001904  75.8903 284.2441 13.18686578231958
ONEWEB-0348             
1 49213U 21083AD  26183.26486389  .00000142  00000+0  31789-3 0  9996
2 49213  87.9197 271.4367 0002344  88.6194 271.5208 13.20772079238805
ONEWEB-0350             
1 49214U 21083AE  26183.28933853  .00000423  00000+0  11231-2 0  9993
2 49214  87.8975 317.2212 0001243 129.9687 230.1551 13.13470093232911
ONEWEB-0351             
1 49215U 21083AF  26183.25796882  .00000119  00000+0  26182-3 0  9994
2 49215  87.9197 271.4367 0002484 112.4913 247.6483 13.20770509238767
ONEWEB-0352             
1 49216U 21083AG  26183.10820595 -.00000273  00000+0 -78299-3 0  9997
2 49216  87.8969 317.2623 0002018 110.7816 249.3530 13.13469724232980
ONEWEB-0354             
1 49217U 21083AH  26183.28509810  .00001066  00000+0  25906-2 0  9996
2 49217  87.9202 271.4304 0002518  92.0282 268.1140 13.20754325238808
ONEWEB-0355             
1 49218U 21083AJ  26183.28948818  .00000432  00000+0  11478-2 0  9997
2 49218  87.8967 317.2268 0002078 102.9538 257.1824 13.13470767232886
ONEWEB-0357             
1 49219U 21083AK  26183.28167773  .00000091  00000+0  19245-3 0  9993
2 49219  87.9195 271.4251 0002156 104.5997 255.5375 13.20774046238804
ONEWEB-0332             
1 49279U 21090A   26183.28995872  .00000203  00000+0  51437-3 0  9990
2 49279  87.8974 286.6992 0001831 105.0310 255.1022 13.14502772229564
ONEWEB-0347             
1 49280U 21090B   26183.27159524  .00000111  00000+0  24076-3 0  9994
2 49280  87.9195 271.4349 0001843 104.9096 255.2242 13.20772378233032
ONEWEB-0349             
1 49281U 21090C   26183.30356777  .00000036  00000+0  56919-4 0  9996
2 49281  87.9196 271.4295 0002041  99.6953 260.4411 13.20773107231829
ONEWEB-0353             
1 49282U 21090D   26183.28202804  .00000226  00000+0  57519-3 0  9992
2 49282  87.8973 286.6970 0001767 106.5054 253.6270 13.14502468229562
ONEWEB-0356             
1 49283U 21090E   26183.30187545  .00000065  00000+0  12742-3 0  9990
2 49283  87.9194 271.4229 0001527  78.6027 281.5278 13.20770888231821
ONEWEB-0358             
1 49284U 21090F   26183.26220842  .00000116  00000+0  25361-3 0  9992
2 49284  87.9197 271.4380 0002030  94.2174 265.9192 13.20778011232547
ONEWEB-0359             
1 49285U 21090G   26183.25304625  .00000029  00000+0  38737-4 0  9999
2 49285  87.9195 271.4324 0002250  94.1546 265.9845 13.20774032232522
ONEWEB-0360             
1 49286U 21090H   26183.24297324  .00000101  00000+0  21707-3 0  9995
2 49286  87.9194 271.4407 0002144 100.1330 260.0045 13.20770914231831
ONEWEB-0361             
1 49287U 21090J   26183.30020839  .00000107  00000+0  23027-3 0  9991
2 49287  87.9191 271.4278 0002085  96.4594 263.6776 13.20772687232298
ONEWEB-0362             
1 49288U 21090K   26183.26477536  .00000127  00000+0  28531-3 0  9994
2 49288  87.9183 301.9745 0002147 105.3522 254.7848 13.19725451228907
ONEWEB-0363             
1 49289U 21090L   26183.23960604  .00000081  00000+0  16634-3 0  9995
2 49289  87.9194 271.4398 0001879  90.4830 269.6519 13.20772240232299
ONEWEB-0364             
1 49290U 21090M   26183.27832145  .00000118  00000+0  25735-3 0  9992
2 49290  87.9193 271.4399 0002075 100.1343 260.0024 13.20772775233434
