OBJECT_NAME,OBJECT_ID,EPOCH,MEAN_MOTION,ECCENTRICITY,INCLINATION,RA_OF_ASC_NODE,ARG_OF_PERICENTER,MEAN_ANOMALY,EPHEMERIS_TYPE,CLASSIFICATION_TYPE,NORAD_CAT_ID,ELEMENT_SET_NO,REV_AT_EPOCH,BSTAR,MEAN_MOTION_DOT,MEAN_MOTION_DDOT
ONEWEB-0336,2021-083S,2026-07-02T02:43:08.979168,13.13470440,.00019781,87.8966,317.2561,90.1451,269.9905,0,U,49202,999,23287,-.15635202E-3,-.44E-6,0
ONEWEB-0337,2021-083T,2026-07-02T06:36:57.843072,13.13469747,.00020571,87.8965,317.2291,97.7734,262.3629,0,U,49203,999,23289,.46042084E-3,.181E-5,0
ONEWEB-0338,2021-083U,2026-07-02T06:26:12.846336,13.20770580,.00018961,87.9191,271.4431,108.0821,252.0519,0,U,49204,999,23880,-.59807357E-4,-.11E-6,0
ONEWEB-0339,2021-083V,2026-07-02T06:49:20.697312,13.13458949,.00020294,87.8967,317.2204,108.8606,251.2743,0,U,49205,999,23287,.66571494E-2,.2444E-4,0
ONEWEB-0340,2021-083W,2026-07-02T03:46:11.259264,13.18685658,.00019199,87.9186,332.4776,92.9197,267.2155,0,U,49206,999,23194,-.29746285E-4,.1E-7,0
ONEWEB-0341,2021-083X,2026-07-02T03:55:53.790528,13.18686355,.00023579,87.9180,332.4787,95.8749,264.2652,0,U,49207,999,23196,-.72397979E-4,-.16E-6,0
ONEWEB-0342,2021-083Y,2026-07-02T06:35:56.840352,13.20771767,.00020698,87.9195,271.4305,103.1196,257.0168,0,U,49208,999,23877,.22182795E-3,.103E-5,0
ONEWEB-0343,2021-083Z,2026-07-02T04:08:02.475168,13.18686282,.00019502,87.9180,332.4760,108.4444,251.6900,0,U,49209,999,23201,-.26970498E-4,.2E-7,0
ONEWEB-0344,2021-083AA,2026-07-02T06:42:01.718784,13.13468712,.00022336,87.8961,317.2346,98.1010,262.0372,0,U,49210,999,23287,.10228493E-2,.386E-5,0
ONEWEB-0345,2021-083AB,2026-07-02T02:50:27.117888,13.13469131,.00022226,87.8977,317.2503,98.7289,261.4092,0,U,49211,999,23286,.41683963E-3,.165E-5,0
ONEWEB-0346,2021-083AC,2026-07-02T04:03:10.960704,13.18686578,.00019041,87.9175,332.4762,75.8903,284.2441,0,U,49212,999,23195,.62012663E-4,.37E-6,0
ONEWEB-0348,2021-083AD,2026-07-02T06:21:24.240096,13.20772079,.00023444,87.9197,271.4367,88.6194,271.5208,0,U,49213,999,23880,.31789277E-3,.142E-5,0
ONEWEB-0350,2021-083AE,2026-07-02T06:56:38.848992,13.13470093,.00012433,87.8975,317.2212,129.9687,230.1551,0,U,49214,999,23291,.11230919E-2,.423E-5,0
ONEWEB-0351,2021-083AF,2026-07-02T06:11:28.506048,13.20770509,.00024844,87.9197,271.4367,112.4913,247.6483,0,U,49215,999,23876,.26182044E-3,.119E-5,0
ONEWEB-0352,2021-083AG,2026-07-02T02:35:48.994080,13.13469724,.00020189,87.8969,317.2623,110.7816,249.3530,0,U,49216,999,23298,-.78298987E-3,-.273E-5,0
ONEWEB-0354,2021-083AH,2026-07-02T06:50:32.475840,13.20754325,.00025186,87.9202,271.4304,92.0282,268.1140,0,U,49217,999,23880,.25906078E-2,.1066E-4,0
ONEWEB-0355,2021-083AJ,2026-07-02T06:56:51.778752,13.13470767,.00020786,87.8967,317.2268,102.9538,257.1824,0,U,49218,999,23288,.11477835E-2,.432E-5,0
ONEWEB-0357,2021-083AK,2026-07-02T06:45:36.955872,13.20774046,.00021562,87.9195,271.4251,104.5997,255.5375,0,U,49219,999,23880,.19245304E-3,.91E-6,0
ONEWEB-0332,2021-090A,2026-07-02T06:57:32.433408,13.14502772,.0001831,87.8974,286.6992,105.0310,255.1022,0,U,49279,999,22956,.5143682E-3,.203E-5,0
ONEWEB-0347,2021-090B,2026-07-02T06:31:05.828736,13.20772378,.00018436,87.9195,271.4349,104.9096,255.2242,0,U,49280,999,23303,.2407629E-3,.111E-5,0
ONEWEB-0349,2021-090C,2026-07-02T07:17:08.255328,13.20773107,.00020418,87.9196,271.4295,99.6953,260.4411,0,U,49281,999,23182,.56919488E-4,.36E-6,0
ONEWEB-0353,2021-090D,2026-07-02T06:46:07.222656,13.14502468,.00017672,87.8973,286.6970,106.5054,253.6270,0,U,49282,999,22956,.57519332E-3,.226E-5,0
ONEWEB-0356,2021-090E,2026-07-02T07:14:42.038880,13.20770888,.00015274,87.9194,271.4229,78.6027,281.5278,0,U,49283,999,23182,.12741807E-3,.65E-6,0
ONEWEB-0358,2021-090F,2026-07-02T06:17:34.807488,13.20778011,.00020303,87.9197,271.4380,94.2174,265.9192,0,U,49284,999,23254,.25360513E-3,.116E-5,0
ONEWEB-0359,2021-090G,2026-07-02T06:04:23.196000,13.20774032,.000225,87.9195,271.4324,94.1546,265.9845,0,U,49285,999,23252,.38736792E-4,.29E-6,0
ONEWEB-0360,2021-090H,2026-07-02T05:49:52.887936,13.20770914,.00021442,87.9194,271.4407,100.1330,260.0045,0,U,49286,999,23183,.21707345E-3,.101E-5,0
ONEWEB-0361,2021-090J,2026-07-02T07:12:18.004896,13.20772687,.00020856,87.9191,271.4278,96.4594,263.6776,0,U,49287,999,23229,.23026719E-3,.107E-5,0
ONEWEB-0362,2021-090K,2026-07-02T06:21:16.591104,13.19725451,.00021479,87.9183,301.9745,105.3522,254.7848,0,U,49288,999,22890,.2853088E-3,.127E-5,0
ONEWEB-0363,2021-090L,2026-07-02T05:45:01.961856,13.20772240,.00018791,87.9194,271.4398,90.4830,269.6519,0,U,49289,999,23229,.16633531E-3,.81E-6,0
ONEWEB-0364,2021-090M,2026-07-02T06:40:46.973280,13.20772775,.00020752,87.9193,271.4399,100.1343,260.0024,0,U,49290,999,23343,.2573531E-3,.118E-5,0
